{"type": "FeatureCollection", "features": [ {"type": "Feature", "properties": {"norad_id": 66848, "name": "STARLINK-36091", "group": "last-30-days", "lat": 41.69404314913609, "lon": 179.2679116409061, "alt_km": 345.608170319234, "timestamp": "2025-12-20T22:39:09.408057+00:00", "meta": {"OBJECT_NAME": "STARLINK-36091", "OBJECT_ID": "2025-281A", "EPOCH": "2025-12-20T14:00:03.000384", "MEAN_MOTION": 15.74145947, "ECCENTRICITY": 8.934e-05, "INCLINATION": 43.0009, "RA_OF_ASC_NODE": 74.3733, "ARG_OF_PERICENTER": 275.2393, "MEAN_ANOMALY": 303.0269, "EPHEMERIS_TYPE": 0, "CLASSIFICATION_TYPE": "U", "NORAD_CAT_ID": 66848, "ELEMENT_SET_NO": 999, "REV_AT_EPOCH": 265, "BSTAR": -0.014586018, "MEAN_MOTION_DOT": -0.01876465, "MEAN_MOTION_DDOT": 0}, "tle": {"line1": "1 66848U 25281A   25354.58336806 -.01876465  00000+0 -14586-1 0  9991", "line2": "2 66848  43.0009  74.3733 0000893 275.2393 303.0269 15.74145947  2651"}}, "geometry": {"type": "Point", "coordinates": [179.2679116409061, 41.69404314913609]}}, {"type": "Feature", "properties": {"norad_id": 66849, "name": "STARLINK-36102", "group": "last-30-days", "lat": 41.28263031913572, "lon": -178.2345273221208, "alt_km": 345.6997451008274, "timestamp": "2025-12-20T22:39:09.408066+00:00", "meta": {"OBJECT_NAME": "STARLINK-36102", "OBJECT_ID": "2025-281B", "EPOCH": "2025-12-20T14:00:03.000384", "MEAN_MOTION": 15.7414672, "ECCENTRICITY": 9.471e-05, "INCLINATION": 43.001, "RA_OF_ASC_NODE": 74.368, "ARG_OF_PERICENTER": 275.4086, "MEAN_ANOMALY": 304.7742, "EPHEMERIS_TYPE": 0, "CLASSIFICATION_TYPE": "U", "NORAD_CAT_ID": 66849, "ELEMENT_SET_NO": 999, "REV_AT_EPOCH": 265, "BSTAR": -0.014590376, "MEAN_MOTION_DOT": -0.01877051, "MEAN_MOTION_DDOT": 0}, "tle": {"line1": "1 66849U 25281B   25354.58336806 -.01877051  00000+0 -14590-1 0  9999", "line2": "2 66849  43.0010  74.3680 0000947 275.4086 304.7742 15.74146720  2650"}}, "geometry": {"type": "Point", "coordinates": [-178.2345273221208, 41.28263031913572]}}, {"type": "Feature", "properties": {"norad_id": 66850, "name": "STARLINK-36105", "group": "last-30-days", "lat": 40.81724527711987, "lon": -175.76827586310756, "alt_km": 345.7843980500893, "timestamp": "2025-12-20T22:39:09.408075+00:00", "meta": {"OBJECT_NAME": "STARLINK-36105", "OBJECT_ID": "2025-281C", "EPOCH": "2025-12-20T14:00:03.000384", "MEAN_MOTION": 15.74148095, "ECCENTRICITY": 9.451e-05, "INCLINATION": 43.0009, "RA_OF_ASC_NODE": 74.3634, "ARG_OF_PERICENTER": 279.1305, "MEAN_ANOMALY": 302.9699, "EPHEMERIS_TYPE": 0, "CLASSIFICATION_TYPE": "U", "NORAD_CAT_ID": 66850, "ELEMENT_SET_NO": 999, "REV_AT_EPOCH": 265, "BSTAR": -0.014618947, "MEAN_MOTION_DOT": -0.01880332, "MEAN_MOTION_DDOT": 0}, "tle": {"line1": "1 66850U 25281C   25354.58336806 -.01880332  00000+0 -14619-1 0  9999", "line2": "2 66850  43.0009  74.3634 0000945 279.1305 302.9699 15.74148095  2650"}}, "geometry": {"type": "Point", "coordinates": [-175.76827586310756, 40.81724527711987]}}, {"type": "Feature", "properties": {"norad_id": 66851, "name": "STARLINK-36094", "group": "last-30-days", "lat": 40.30038488668044, "lon": -173.34089941243232, "alt_km": 345.8704190053004, "timestamp": "2025-12-20T22:39:09.408087+00:00", "meta": {"OBJECT_NAME": "STARLINK-36094", "OBJECT_ID": "2025-281D", "EPOCH": "2025-12-20T14:00:03.000384", "MEAN_MOTION": 15.74155217, "ECCENTRICITY": 9.663e-05, "INCLINATION": 43.0007, "RA_OF_ASC_NODE": 74.3588, "ARG_OF_PERICENTER": 279.2844, "MEAN_ANOMALY": 304.7275, "EPHEMERIS_TYPE": 0, "CLASSIFICATION_TYPE": "U", "NORAD_CAT_ID": 66851, "ELEMENT_SET_NO": 999, "REV_AT_EPOCH": 265, "BSTAR": -0.014680404, "MEAN_MOTION_DOT": -0.01887703, "MEAN_MOTION_DDOT": 0}, "tle": {"line1": "1 66851U 25281D   25354.58336806 -.01887703  00000+0 -14680-1 0  9997", "line2": "2 66851  43.0007  74.3588 0000966 279.2844 304.7275 15.74155217  2653"}}, "geometry": {"type": "Point", "coordinates": [-173.34089941243232, 40.30038488668044]}}, {"type": "Feature", "properties": {"norad_id": 66852, "name": "STARLINK-35992", "group": "last-30-days", "lat": 39.73266204503268, "lon": -170.94799925016784, "alt_km": 346.09706178851866, "timestamp": "2025-12-20T22:39:09.408097+00:00", "meta": {"OBJECT_NAME": "STARLINK-35992", "OBJECT_ID": "2025-281E", "EPOCH": "2025-12-20T14:00:03.000384", "MEAN_MOTION": 15.74142778, "ECCENTRICITY": 0.0001122, "INCLINATION": 43.0009, "RA_OF_ASC_NODE": 74.3538, "ARG_OF_PERICENTER": 279.4221, "MEAN_ANOMALY": 306.5149, "EPHEMERIS_TYPE": 0, "CLASSIFICATION_TYPE": "U", "NORAD_CAT_ID": 66852, "ELEMENT_SET_NO": 999, "REV_AT_EPOCH": 265, "BSTAR": -0.01458898, "MEAN_MOTION_DOT": -0.0187676, "MEAN_MOTION_DDOT": 0}, "tle": {"line1": "1 66852U 25281E   25354.58336806 -.01876760  00000+0 -14589-1 0  9997", "line2": "2 66852  43.0009  74.3538 0001122 279.4221 306.5149 15.74142778  2655"}}, "geometry": {"type": "Point", "coordinates": [-170.94799925016784, 39.73266204503268]}}, {"type": "Feature", "properties": {"norad_id": 66853, "name": "STARLINK-35986", "group": "last-30-days", "lat": 39.11724191019981, "lon": -168.59984832926943, "alt_km": 346.24292929637977, "timestamp": "2025-12-20T22:39:09.408106+00:00", "meta": {"OBJECT_NAME": "STARLINK-35986", "OBJECT_ID": "2025-281F", "EPOCH": "2025-12-20T14:00:03.000384", "MEAN_MOTION": 15.7414647, "ECCENTRICITY": 0.00012024, "INCLINATION": 43.0007, "RA_OF_ASC_NODE": 74.3493, "ARG_OF_PERICENTER": 277.1075, "MEAN_ANOMALY": 310.7453, "EPHEMERIS_TYPE": 0, "CLASSIFICATION_TYPE": "U", "NORAD_CAT_ID": 66853, "ELEMENT_SET_NO": 999, "REV_AT_EPOCH": 265, "BSTAR": -0.014630244, "MEAN_MOTION_DOT": -0.01881692, "MEAN_MOTION_DDOT": 0}, "tle": {"line1": "1 66853U 25281F   25354.58336806 -.01881692  00000+0 -14630-1 0  9995", "line2": "2 66853  43.0007  74.3493 0001202 277.1075 310.7453 15.74146470  2653"}}, "geometry": {"type": "Point", "coordinates": [-168.59984832926943, 39.11724191019981]}}, {"type": "Feature", "properties": {"norad_id": 66854, "name": "STARLINK-36087", "group": "last-30-days", "lat": 38.455578619776915, "lon": -166.29445475858242, "alt_km": 346.3651111788995, "timestamp": "2025-12-20T22:39:09.408115+00:00", "meta": {"OBJECT_NAME": "STARLINK-36087", "OBJECT_ID": "2025-281G", "EPOCH": "2025-12-20T14:00:03.000384", "MEAN_MOTION": 15.74148444, "ECCENTRICITY": 0.00012501, "INCLINATION": 43.0007, "RA_OF_ASC_NODE": 74.3443, "ARG_OF_PERICENTER": 274.9267, "MEAN_ANOMALY": 314.8427, "EPHEMERIS_TYPE": 0, "CLASSIFICATION_TYPE": "U", "NORAD_CAT_ID": 66854, "ELEMENT_SET_NO": 999, "REV_AT_EPOCH": 265, "BSTAR": -0.014652448, "MEAN_MOTION_DOT": -0.01884348, "MEAN_MOTION_DDOT": 0}, "tle": {"line1": "1 66854U 25281G   25354.58336806 -.01884348  00000+0 -14652-1 0  9991", "line2": "2 66854  43.0007  74.3443 0001250 274.9267 314.8427 15.74148444  2659"}}, "geometry": {"type": "Point", "coordinates": [-166.29445475858242, 38.455578619776915]}}, {"type": "Feature", "properties": {"norad_id": 66855, "name": "STARLINK-36090", "group": "last-30-days", "lat": 37.74937153167546, "lon": -164.03128690090423, "alt_km": 346.3821788105233, "timestamp": "2025-12-20T22:39:09.408124+00:00", "meta": {"OBJECT_NAME": "STARLINK-36090", "OBJECT_ID": "2025-281H", "EPOCH": "2025-12-20T14:00:03.000384", "MEAN_MOTION": 15.74145366, "ECCENTRICITY": 0.00011104, "INCLINATION": 43.0008, "RA_OF_ASC_NODE": 74.3401, "ARG_OF_PERICENTER": 276.7041, "MEAN_ANOMALY": 314.9825, "EPHEMERIS_TYPE": 0, "CLASSIFICATION_TYPE": "U", "NORAD_CAT_ID": 66855, "ELEMENT_SET_NO": 999, "REV_AT_EPOCH": 253, "BSTAR": -0.01461675, "MEAN_MOTION_DOT": -0.01880031, "MEAN_MOTION_DDOT": 0}, "tle": {"line1": "1 66855U 25281H   25354.58336806 -.01880031  00000+0 -14617-1 0  9998", "line2": "2 66855  43.0008  74.3401 0001110 276.7041 314.9825 15.74145366  2530"}}, "geometry": {"type": "Point", "coordinates": [-164.03128690090423, 37.74937153167546]}}, {"type": "Feature", "properties": {"norad_id": 66856, "name": "STARLINK-36072", "group": "last-30-days", "lat": 37.00019973392524, "lon": -161.8137742933868, "alt_km": 346.3970914093461, "timestamp": "2025-12-20T22:39:09.408136+00:00", "meta": {"OBJECT_NAME": "STARLINK-36072", "OBJECT_ID": "2025-281J", "EPOCH": "2025-12-20T14:00:03.000384", "MEAN_MOTION": 15.74144557, "ECCENTRICITY": 0.00010051, "INCLINATION": 43.0007, "RA_OF_ASC_NODE": 74.3339, "ARG_OF_PERICENTER": 272.7319, "MEAN_ANOMALY": 320.8719, "EPHEMERIS_TYPE": 0, "CLASSIFICATION_TYPE": "U", "NORAD_CAT_ID": 66856, "ELEMENT_SET_NO": 999, "REV_AT_EPOCH": 265, "BSTAR": -0.014587372, "MEAN_MOTION_DOT": -0.0187661, "MEAN_MOTION_DDOT": 0}, "tle": {"line1": "1 66856U 25281J   25354.58336806 -.01876610  00000+0 -14587-1 0  9993", "line2": "2 66856  43.0007  74.3339 0001005 272.7319 320.8719 15.74144557  2659"}}, "geometry": {"type": "Point", "coordinates": [-161.8137742933868, 37.00019973392524]}}, {"type": "Feature", "properties": {"norad_id": 66857, "name": "STARLINK-36083", "group": "last-30-days", "lat": 36.21029385002851, "lon": -159.63903897733724, "alt_km": 346.5360220735074, "timestamp": "2025-12-20T22:39:09.408145+00:00", "meta": {"OBJECT_NAME": "STARLINK-36083", "OBJECT_ID": "2025-281K", "EPOCH": "2025-12-20T14:00:03.000384", "MEAN_MOTION": 15.74148427, "ECCENTRICITY": 0.00010168, "INCLINATION": 43.0007, "RA_OF_ASC_NODE": 74.329, "ARG_OF_PERICENTER": 274.9115, "MEAN_ANOMALY": 320.6074, "EPHEMERIS_TYPE": 0, "CLASSIFICATION_TYPE": "U", "NORAD_CAT_ID": 66857, "ELEMENT_SET_NO": 999, "REV_AT_EPOCH": 265, "BSTAR": -0.014629799, "MEAN_MOTION_DOT": -0.01881625, "MEAN_MOTION_DDOT": 0}, "tle": {"line1": "1 66857U 25281K   25354.58336806 -.01881625  00000+0 -14630-1 0  9995", "line2": "2 66857  43.0007  74.3290 0001016 274.9115 320.6074 15.74148427  2658"}}, "geometry": {"type": "Point", "coordinates": [-159.63903897733724, 36.21029385002851]}}]}